{"type": "FeatureCollection", "features": [ {"type": "Feature", "properties": {"norad_id": 34058, "name": "COSMOS 2251 DEB", "group": "cosmos-2251-debris", "lat": 65.84117729647801, "lon": -64.66995973273879, "alt_km": 823.0505420553491, "timestamp": "2025-12-26T19:22:39.303018+00:00", "meta": {"OBJECT_NAME": "COSMOS 2251 DEB", "OBJECT_ID": "1993-036JV", "EPOCH": "2025-12-26T12:03:23.174784", "MEAN_MOTION": 13.56098149, "ECCENTRICITY": 0.03772951, "INCLINATION": 73.9318, "RA_OF_ASC_NODE": 155.8047, "ARG_OF_PERICENTER": 148.4239, "MEAN_ANOMALY": 273.8422, "EPHEMERIS_TYPE": 0, "CLASSIFICATION_TYPE": "U", "NORAD_CAT_ID": 34058, "ELEMENT_SET_NO": 999, "REV_AT_EPOCH": 83329, "BSTAR": 0.00079535675, "MEAN_MOTION_DOT": 8.62e-06, "MEAN_MOTION_DDOT": 0}, "tle": {"line1": "1 34058U 93036JV  25360.50235156  .00000862  00000+0  79536-3 0  9992", "line2": "2 34058  73.9318 155.8047 0377295 148.4239 273.8422 13.56098149833296"}}, "geometry": {"type": "Point", "coordinates": [-64.66995973273879, 65.84117729647801]}}, {"type": "Feature", "properties": {"norad_id": 34059, "name": "COSMOS 2251 DEB", "group": "cosmos-2251-debris", "lat": -13.831814846272263, "lon": -16.22221521109941, "alt_km": 710.2500480552408, "timestamp": "2025-12-26T19:22:39.303028+00:00", "meta": {"OBJECT_NAME": "COSMOS 2251 DEB", "OBJECT_ID": "1993-036JW", "EPOCH": "2025-12-26T13:51:00.480960", "MEAN_MOTION": 14.5303358, "ECCENTRICITY": 0.00183778, "INCLINATION": 74.0377, "RA_OF_ASC_NODE": 160.1711, "ARG_OF_PERICENTER": 236.4774, "MEAN_ANOMALY": 193.7019, "EPHEMERIS_TYPE": 0, "CLASSIFICATION_TYPE": "U", "NORAD_CAT_ID": 34059, "ELEMENT_SET_NO": 999, "REV_AT_EPOCH": 88660, "BSTAR": 0.00096458782, "MEAN_MOTION_DOT": 3.966e-05, "MEAN_MOTION_DDOT": 0}, "tle": {"line1": "1 34059U 93036JW  25360.57708890  .00003966  00000+0  96459-3 0  9991", "line2": "2 34059  74.0377 160.1711 0018377 236.4774 193.7019 14.53033580886607"}}, "geometry": {"type": "Point", "coordinates": [-16.22221521109941, -13.831814846272263]}}, {"type": "Feature", "properties": {"norad_id": 34061, "name": "COSMOS 2251 DEB", "group": "cosmos-2251-debris", "lat": -72.56199265233505, "lon": 123.05281807502273, "alt_km": 754.4380334249827, "timestamp": "2025-12-26T19:22:39.303038+00:00", "meta": {"OBJECT_NAME": "COSMOS 2251 DEB", "OBJECT_ID": "1993-036JY", "EPOCH": "2025-12-26T02:04:17.271264", "MEAN_MOTION": 14.40383114, "ECCENTRICITY": 0.00209203, "INCLINATION": 74.0385, "RA_OF_ASC_NODE": 238.7192, "ARG_OF_PERICENTER": 313.753, "MEAN_ANOMALY": 171.712, "EPHEMERIS_TYPE": 0, "CLASSIFICATION_TYPE": "U", "NORAD_CAT_ID": 34061, "ELEMENT_SET_NO": 999, "REV_AT_EPOCH": 88372, "BSTAR": 0.0002669679, "MEAN_MOTION_DOT": 8.23e-06, "MEAN_MOTION_DDOT": 0}, "tle": {"line1": "1 34061U 93036JY  25360.08631101  .00000823  00000+0  26697-3 0  9996", "line2": "2 34061  74.0385 238.7192 0020920 313.7530 171.7120 14.40383114883726"}}, "geometry": {"type": "Point", "coordinates": [123.05281807502273, -72.56199265233505]}}, {"type": "Feature", "properties": {"norad_id": 34062, "name": "COSMOS 2251 DEB", "group": "cosmos-2251-debris", "lat": 5.098766354906719, "lon": -71.10678254029587, "alt_km": 583.9233884842324, "timestamp": "2025-12-26T19:22:39.303049+00:00", "meta": {"OBJECT_NAME": "COSMOS 2251 DEB", "OBJECT_ID": "1993-036JZ", "EPOCH": "2025-12-26T07:22:02.240832", "MEAN_MOTION": 14.79205742, "ECCENTRICITY": 0.0072612, "INCLINATION": 74.028, "RA_OF_ASC_NODE": 111.3422, "ARG_OF_PERICENTER": 187.594, "MEAN_ANOMALY": 203.3979, "EPHEMERIS_TYPE": 0, "CLASSIFICATION_TYPE": "U", "NORAD_CAT_ID": 34062, "ELEMENT_SET_NO": 999, "REV_AT_EPOCH": 88796, "BSTAR": 0.0025590846, "MEAN_MOTION_DOT": 0.00019888, "MEAN_MOTION_DDOT": 0}, "tle": {"line1": "1 34062U 93036JZ  25360.30697038  .00019888  00000+0  25591-2 0  9995", "line2": "2 34062  74.0280 111.3422 0072612 187.5940 203.3979 14.79205742887966"}}, "geometry": {"type": "Point", "coordinates": [-71.10678254029587, 5.098766354906719]}}, {"type": "Feature", "properties": {"norad_id": 34064, "name": "COSMOS 2251 DEB", "group": "cosmos-2251-debris", "lat": -21.713145046246957, "lon": -121.77677466009888, "alt_km": 741.4840731068289, "timestamp": "2025-12-26T19:22:39.303059+00:00", "meta": {"OBJECT_NAME": "COSMOS 2251 DEB", "OBJECT_ID": "1993-036KB", "EPOCH": "2025-12-26T10:18:58.704768", "MEAN_MOTION": 14.42382144, "ECCENTRICITY": 0.00224108, "INCLINATION": 74.0318, "RA_OF_ASC_NODE": 245.4706, "ARG_OF_PERICENTER": 310.2683, "MEAN_ANOMALY": 227.4076, "EPHEMERIS_TYPE": 0, "CLASSIFICATION_TYPE": "U", "NORAD_CAT_ID": 34064, "ELEMENT_SET_NO": 999, "REV_AT_EPOCH": 88339, "BSTAR": 0.0004699921, "MEAN_MOTION_DOT": 1.532e-05, "MEAN_MOTION_DDOT": 0}, "tle": {"line1": "1 34064U 93036KB  25360.42984612  .00001532  00000+0  46999-3 0  9990", "line2": "2 34064  74.0318 245.4706 0022410 310.2683 227.4076 14.42382144883394"}}, "geometry": {"type": "Point", "coordinates": [-121.77677466009888, -21.713145046246957]}}, {"type": "Feature", "properties": {"norad_id": 34065, "name": "COSMOS 2251 DEB", "group": "cosmos-2251-debris", "lat": 44.14035028853248, "lon": 36.07985719517992, "alt_km": 772.4960394021291, "timestamp": "2025-12-26T19:22:39.303069+00:00", "meta": {"OBJECT_NAME": "COSMOS 2251 DEB", "OBJECT_ID": "1993-036KC", "EPOCH": "2025-12-26T09:32:37.060224", "MEAN_MOTION": 14.38076343, "ECCENTRICITY": 0.00169065, "INCLINATION": 74.0346, "RA_OF_ASC_NODE": 232.9641, "ARG_OF_PERICENTER": 328.2288, "MEAN_ANOMALY": 204.7899, "EPHEMERIS_TYPE": 0, "CLASSIFICATION_TYPE": "U", "NORAD_CAT_ID": 34065, "ELEMENT_SET_NO": 999, "REV_AT_EPOCH": 88401, "BSTAR": 0.00014742771, "MEAN_MOTION_DOT": 4.21e-06, "MEAN_MOTION_DDOT": 0}, "tle": {"line1": "1 34065U 93036KC  25360.39765116  .00000421  00000+0  14743-3 0  9991", "line2": "2 34065  74.0346 232.9641 0016906 328.2288 204.7899 14.38076343884015"}}, "geometry": {"type": "Point", "coordinates": [36.07985719517992, 44.14035028853248]}}, {"type": "Feature", "properties": {"norad_id": 34070, "name": "COSMOS 2251 DEB", "group": "cosmos-2251-debris", "lat": -19.424942474912818, "lon": -85.57485860142334, "alt_km": 629.5999329018032, "timestamp": "2025-12-26T19:22:39.303079+00:00", "meta": {"OBJECT_NAME": "COSMOS 2251 DEB", "OBJECT_ID": "1993-036KH", "EPOCH": "2025-12-25T01:01:03.747072", "MEAN_MOTION": 14.774265, "ECCENTRICITY": 0.00178437, "INCLINATION": 74.0006, "RA_OF_ASC_NODE": 92.0864, "ARG_OF_PERICENTER": 209.6173, "MEAN_ANOMALY": 326.6955, "EPHEMERIS_TYPE": 0, "CLASSIFICATION_TYPE": "U", "NORAD_CAT_ID": 34070, "ELEMENT_SET_NO": 999, "REV_AT_EPOCH": 88792, "BSTAR": 0.0025645795, "MEAN_MOTION_DOT": 0.00018324, "MEAN_MOTION_DDOT": 0}, "tle": {"line1": "1 34070U 93036KH  25359.04240448  .00018324  00000+0  25646-2 0  9997", "line2": "2 34070  74.0006  92.0864 0017843 209.6173 326.6955 14.77426500887929"}}, "geometry": {"type": "Point", "coordinates": [-85.57485860142334, -19.424942474912818]}}, {"type": "Feature", "properties": {"norad_id": 34114, "name": "COSMOS 2251 DEB", "group": "cosmos-2251-debris", "lat": 69.52270098603961, "lon": 67.11277691789492, "alt_km": 685.2309694994738, "timestamp": "2025-12-26T19:22:39.303089+00:00", "meta": {"OBJECT_NAME": "COSMOS 2251 DEB", "OBJECT_ID": "1993-036KK", "EPOCH": "2025-12-26T11:22:16.182624", "MEAN_MOTION": 14.56564007, "ECCENTRICITY": 0.0048324, "INCLINATION": 74.0594, "RA_OF_ASC_NODE": 17.8054, "ARG_OF_PERICENTER": 7.8973, "MEAN_ANOMALY": 120.0303, "EPHEMERIS_TYPE": 0, "CLASSIFICATION_TYPE": "U", "NORAD_CAT_ID": 34114, "ELEMENT_SET_NO": 999, "REV_AT_EPOCH": 88001, "BSTAR": 0.0017463199, "MEAN_MOTION_DOT": 7.882e-05, "MEAN_MOTION_DDOT": 0}, "tle": {"line1": "1 34114U 93036KK  25360.47379841  .00007882  00000+0  17463-2 0  9990", "line2": "2 34114  74.0594  17.8054 0048324   7.8973 120.0303 14.56564007880018"}}, "geometry": {"type": "Point", "coordinates": [67.11277691789492, 69.52270098603961]}}, {"type": "Feature", "properties": {"norad_id": 34115, "name": "COSMOS 2251 DEB", "group": "cosmos-2251-debris", "lat": -71.9687776535447, "lon": 152.41804682183306, "alt_km": 645.9115433347142, "timestamp": "2025-12-26T19:22:39.303100+00:00", "meta": {"OBJECT_NAME": "COSMOS 2251 DEB", "OBJECT_ID": "1993-036KL", "EPOCH": "2025-12-26T06:45:50.181120", "MEAN_MOTION": 14.79663462, "ECCENTRICITY": 0.00291106, "INCLINATION": 74.0052, "RA_OF_ASC_NODE": 215.2379, "ARG_OF_PERICENTER": 34.6993, "MEAN_ANOMALY": 325.6074, "EPHEMERIS_TYPE": 0, "CLASSIFICATION_TYPE": "U", "NORAD_CAT_ID": 34115, "ELEMENT_SET_NO": 999, "REV_AT_EPOCH": 89612, "BSTAR": 0.00088325953, "MEAN_MOTION_DOT": 6.648e-05, "MEAN_MOTION_DDOT": 0}, "tle": {"line1": "1 34115U 93036KL  25360.28183080  .00006648  00000+0  88326-3 0  9994", "line2": "2 34115  74.0052 215.2379 0029110  34.6993 325.6074 14.79663462896121"}}, "geometry": {"type": "Point", "coordinates": [152.41804682183306, -71.9687776535447]}}, {"type": "Feature", "properties": {"norad_id": 34116, "name": "COSMOS 2251 DEB", "group": "cosmos-2251-debris", "lat": -21.07529260250091, "lon": 149.90789716422927, "alt_km": 722.7988433701703, "timestamp": "2025-12-26T19:22:39.303110+00:00", "meta": {"OBJECT_NAME": "COSMOS 2251 DEB", "OBJECT_ID": "1993-036KM", "EPOCH": "2025-12-26T11:30:12.794400", "MEAN_MOTION": 14.53059292, "ECCENTRICITY": 0.00117908, "INCLINATION": 74.0399, "RA_OF_ASC_NODE": 156.8584, "ARG_OF_PERICENTER": 233.4573, "MEAN_ANOMALY": 189.0449, "EPHEMERIS_TYPE": 0, "CLASSIFICATION_TYPE": "U", "NORAD_CAT_ID": 34116, "ELEMENT_SET_NO": 999, "REV_AT_EPOCH": 88686, "BSTAR": 0.00086802803, "MEAN_MOTION_DOT": 3.563e-05, "MEAN_MOTION_DDOT": 0}, "tle": {"line1": "1 34116U 93036KM  25360.47931475  .00003563  00000+0  86803-3 0  9996", "line2": "2 34116  74.0399 156.8584 0011790 233.4573 189.0449 14.53059292886862"}}, "geometry": {"type": "Point", "coordinates": [149.90789716422927, -21.07529260250091]}}]}